{
  "type": "FeatureCollection",
  "features": [
    {
      "type": "Feature",
      "properties": {
        "norad_id": 40362,
        "name": "YAOGAN-26",
        "group": "resource",
        "lat": -12.023457217356377,
        "lon": 162.04118523131086,
        "alt_km": 457.3878134186634,
        "timestamp": "2025-12-08T17:43:04.551186+00:00",
        "meta_object_name": "YAOGAN-26",
        "meta_object_id": "2014-088A",
        "meta_epoch": "2025-12-08T05:57:49.872096",
        "meta_mean_motion": 15.3906085,
        "meta_eccentricity": 0.00067273,
        "meta_inclination": 97.0644,
        "meta_ra_of_asc_node": 343.0825,
        "meta_arg_of_pericenter": 42.6768,
        "meta_mean_anomaly": 317.5,
        "meta_ephemeris_type": 0,
        "meta_classification_type": "U",
        "meta_norad_cat_id": 40362,
        "meta_element_set_no": 999,
        "meta_rev_at_epoch": 60825,
        "meta_bstar": 0.00057748778,
        "meta_mean_motion_dot": 0.00022318,
        "meta_mean_motion_ddot": 0,
        "tle_line1": "1 40362U 14088A   25342.24849389  .00022318  00000+0  57749-3 0  9999",
        "tle_line2": "2 40362  97.0644 343.0825 0006727  42.6768 317.5000 15.39060850608251"
      },
      "geometry": {
        "type": "Point",
        "coordinates": [
          162.04118523131086,
          -12.023457217356377
        ]
      }
    },
    {
      "type": "Feature",
      "properties": {
        "norad_id": 40376,
        "name": "SMAP",
        "group": "resource",
        "lat": 81.74349282530561,
        "lon": -112.41707663486805,
        "alt_km": 674.1056581920329,
        "timestamp": "2025-12-08T17:43:04.551196+00:00",
        "meta_object_name": "SMAP",
        "meta_object_id": "2015-003A",
        "meta_epoch": "2025-12-08T05:48:51.710688",
        "meta_mean_motion": 14.63336671,
        "meta_eccentricity": 0.00012077,
        "meta_inclination": 98.129,
        "meta_ra_of_asc_node": 347.0309,
        "meta_arg_of_pericenter": 88.0587,
        "meta_mean_anomaly": 272.0753,
        "meta_ephemeris_type": 0,
        "meta_classification_type": "U",
        "meta_norad_cat_id": 40376,
        "meta_element_set_no": 999,
        "meta_rev_at_epoch": 57969,
        "meta_bstar": 0.00022433365,
        "meta_mean_motion_dot": 1.111e-05,
        "meta_mean_motion_ddot": 0,
        "tle_line1": "1 40376U 15003A   25342.24226517  .00001111  00000+0  22433-3 0  9994",
        "tle_line2": "2 40376  98.1290 347.0309 0001207  88.0587 272.0753 14.63336671579695"
      },
      "geometry": {
        "type": "Point",
        "coordinates": [
          -112.41707663486805,
          81.74349282530561
        ]
      }
    },
    {
      "type": "Feature",
      "properties": {
        "norad_id": 40536,
        "name": "KOMPSAT-3A",
        "group": "resource",
        "lat": 64.28015361077173,
        "lon": -59.40278201782981,
        "alt_km": 427.8241418487323,
        "timestamp": "2025-12-08T17:43:04.551207+00:00",
        "meta_object_name": "KOMPSAT-3A",
        "meta_object_id": "2015-014A",
        "meta_epoch": "2025-12-08T04:59:24.178272",
        "meta_mean_motion": 15.43697985,
        "meta_eccentricity": 0.00044147,
        "meta_inclination": 97.679,
        "meta_ra_of_asc_node": 316.3046,
        "meta_arg_of_pericenter": 136.5669,
        "meta_mean_anomaly": 223.5926,
        "meta_ephemeris_type": 0,
        "meta_classification_type": "U",
        "meta_norad_cat_id": 40536,
        "meta_element_set_no": 999,
        "meta_rev_at_epoch": 59225,
        "meta_bstar": 0.00050968421,
        "meta_mean_motion_dot": 0.00022947,
        "meta_mean_motion_ddot": 0,
        "tle_line1": "1 40536U 15014A   25342.20791873  .00022947  00000+0  50968-3 0  9996",
        "tle_line2": "2 40536  97.6790 316.3046 0004414 136.5669 223.5926 15.43697985592259"
      },
      "geometry": {
        "type": "Point",
        "coordinates": [
          -59.40278201782981,
          64.28015361077173
        ]
      }
    },
    {
      "type": "Feature",
      "properties": {
        "norad_id": 40697,
        "name": "SENTINEL-2A",
        "group": "resource",
        "lat": 65.93513906302071,
        "lon": 35.59353142777602,
        "alt_km": 781.8549552490249,
        "timestamp": "2025-12-08T17:43:04.551218+00:00",
        "meta_object_name": "SENTINEL-2A",
        "meta_object_id": "2015-028A",
        "meta_epoch": "2025-12-08T05:39:20.792448",
        "meta_mean_motion": 14.30824965,
        "meta_eccentricity": 0.00010295,
        "meta_inclination": 98.5699,
        "meta_ra_of_asc_node": 54.8327,
        "meta_arg_of_pericenter": 94.8628,
        "meta_mean_anomaly": 265.2672,
        "meta_ephemeris_type": 0,
        "meta_classification_type": "U",
        "meta_norad_cat_id": 40697,
        "meta_element_set_no": 999,
        "meta_rev_at_epoch": 54642,
        "meta_bstar": 0.00014910809,
        "meta_mean_motion_dot": 3.47e-06,
        "meta_mean_motion_ddot": 0,
        "tle_line1": "1 40697U 15028A   25342.23565732  .00000347  00000+0  14911-3 0  9993",
        "tle_line2": "2 40697  98.5699  54.8327 0001029  94.8628 265.2672 14.30824965546425"
      },
      "geometry": {
        "type": "Point",
        "coordinates": [
          35.59353142777602,
          65.93513906302071
        ]
      }
    },
    {
      "type": "Feature",
      "properties": {
        "norad_id": 40701,
        "name": "GAOFEN-8",
        "group": "resource",
        "lat": 6.100454017987048,
        "lon": 159.856792282718,
        "alt_km": 459.71346497148534,
        "timestamp": "2025-12-08T17:43:04.551228+00:00",
        "meta_object_name": "GAOFEN-8",
        "meta_object_id": "2015-030A",
        "meta_epoch": "2025-12-08T06:45:47.617632",
        "meta_mean_motion": 15.38323859,
        "meta_eccentricity": 0.00114188,
        "meta_inclination": 97.6912,
        "meta_ra_of_asc_node": 160.206,
        "meta_arg_of_pericenter": 153.4723,
        "meta_mean_anomaly": 206.7108,
        "meta_ephemeris_type": 0,
        "meta_classification_type": "U",
        "meta_norad_cat_id": 40701,
        "meta_element_set_no": 999,
        "meta_rev_at_epoch": 58202,
        "meta_bstar": 0.00057734325,
        "meta_mean_motion_dot": 0.00021804,
        "meta_mean_motion_ddot": 0,
        "tle_line1": "1 40701U 15030A   25342.28180113  .00021804  00000+0  57734-3 0  9994",
        "tle_line2": "2 40701  97.6912 160.2060 0011418 153.4723 206.7108 15.38323859582021"
      },
      "geometry": {
        "type": "Point",
        "coordinates": [
          159.856792282718,
          6.100454017987048
        ]
      }
    },
    {
      "type": "Feature",
      "properties": {
        "norad_id": 40718,
        "name": "CARBONITE 1 (CBNT-1)",
        "group": "resource",
        "lat": 18.879730314734434,
        "lon": 161.3275799047898,
        "alt_km": 630.914166750561,
        "timestamp": "2025-12-08T17:43:04.551238+00:00",
        "meta_object_name": "CARBONITE 1 (CBNT-1)",
        "meta_object_id": "2015-032D",
        "meta_epoch": "2025-12-08T06:17:40.001856",
        "meta_mean_motion": 14.82711808,
        "meta_eccentricity": 0.00141368,
        "meta_inclination": 97.6403,
        "meta_ra_of_asc_node": 163.5039,
        "meta_arg_of_pericenter": 196.282,
        "meta_mean_anomaly": 163.7942,
        "meta_ephemeris_type": 0,
        "meta_classification_type": "U",
        "meta_norad_cat_id": 40718,
        "meta_element_set_no": 999,
        "meta_rev_at_epoch": 56104,
        "meta_bstar": 0.00051049494,
        "meta_mean_motion_dot": 4.077e-05,
        "meta_mean_motion_ddot": 0,
        "tle_line1": "1 40718U 15032D   25342.26226854  .00004077  00000+0  51049-3 0  9991",
        "tle_line2": "2 40718  97.6403 163.5039 0014136 196.2820 163.7942 14.82711808561049"
      },
      "geometry": {
        "type": "Point",
        "coordinates": [
          161.3275799047898,
          18.879730314734434
        ]
      }
    },
    {
      "type": "Feature",
      "properties": {
        "norad_id": 40878,
        "name": "YAOGAN-27",
        "group": "resource",
        "lat": -44.665804547607394,
        "lon": -17.3136028762276,
        "alt_km": 1200.8328297740245,
        "timestamp": "2025-12-08T17:43:04.551249+00:00",
        "meta_object_name": "YAOGAN-27",
        "meta_object_id": "2015-040A",
        "meta_epoch": "2025-12-08T07:00:05.998176",
        "meta_mean_motion": 13.16060049,
        "meta_eccentricity": 0.00076574,
        "meta_inclination": 100.1008,
        "meta_ra_of_asc_node": 332.113,
        "meta_arg_of_pericenter": 297.7298,
        "meta_mean_anomaly": 62.3038,
        "meta_ephemeris_type": 0,
        "meta_classification_type": "U",
        "meta_norad_cat_id": 40878,
        "meta_element_set_no": 999,
        "meta_rev_at_epoch": 49255,
        "meta_bstar": 3.3633082e-05,
        "meta_mean_motion_dot": -3e-07,
        "meta_mean_motion_ddot": 0,
        "tle_line1": "1 40878U 15040A   25342.29173609 -.00000030  00000+0  33633-4 0  9995",
        "tle_line2": "2 40878 100.1008 332.1130 0007657 297.7298  62.3038 13.16060049492558"
      },
      "geometry": {
        "type": "Point",
        "coordinates": [
          -17.3136028762276,
          -44.665804547607394
        ]
      }
    }
  ]
}